OBJECT_NAME,OBJECT_ID,EPOCH,MEAN_MOTION,ECCENTRICITY,INCLINATION,RA_OF_ASC_NODE,ARG_OF_PERICENTER,MEAN_ANOMALY,EPHEMERIS_TYPE,CLASSIFICATION_TYPE,NORAD_CAT_ID,ELEMENT_SET_NO,REV_AT_EPOCH,BSTAR,MEAN_MOTION_DOT,MEAN_MOTION_DDOT
HST,1990-037B,2026-06-16T03:57:59.735808,15.30736864,.0001853,28.4719,87.5586,131.7056,228.3698,0,U,20580,999,78841,.16841E-3,.5381E-4,0
POLAR,1996-013A,2026-06-15T11:54:59.866272,1.29846135,.6468762,79.8518,227.0721,209.1369,89.7315,0,U,23802,999,14483,0,.145E-5,0
SWAS,1998-071A,2026-06-15T21:20:32.699904,15.09620380,.0008679,69.8952,230.8665,261.4215,98.5965,0,U,25560,999,49707,.17292E-3,.2684E-4,0
CXO,1999-040B,2026-06-18T09:03:04.311936,0.37804062,.78354691,56.2189,116.5542,310.3049,0.1821,0,U,25867,999,1732,0,.529E-5,0
XMM-NEWTON,1999-066A,2026-06-16T08:27:19.431072,0.50126459,.46745597,64.4922,282.9960,64.9442,0.1261,0,U,25989,999,2300,0,.36E-6,0
TERRA,1999-068A,2026-06-16T03:07:54.660000,14.61102329,.0001501,97.9457,216.7186,193.3628,244.8059,0,U,25994,999,40945,.73126E-4,.315E-5,0
CLUSTER II-FM7 (SAMBA),2000-041A,2026-06-17T03:20:03.973632,0.44868040,.9054007,149.9159,50.9864,268.1291,359.6411,0,U,26410,999,2030,0,.13373E-3,0
CLUSTER II-FM8 (TANGO),2000-045B,2026-06-15T04:28:42.164832,0.44404213,.90566584,150.1471,51.6871,268.6526,2.8141,0,U,26464,999,2030,0,.11723E-3,0
ODIN,2001-007A,2026-06-16T01:52:44.156640,15.75459520,.0006782,97.3827,207.9489,144.4595,215.7123,0,U,26702,999,38922,.10319E-2,.158692E-2,0
TIMED,2001-055B,2026-06-16T04:55:39.186624,14.95293196,.0001064,74.0674,236.9954,337.0634,23.0503,0,U,26998,999,33067,.86742E-4,.916E-5,0
CORIOLIS,2003-001A,2026-06-15T23:58:57.360000,14.19944511,.0013308,98.7125,173.9021,212.3893,147.6467,0,U,27640,999,21405,.56891E-4,.77E-6,0
SORCE,2003-004A,2026-06-16T00:15:08.707680,15.03708358,.0016609,39.9909,268.3919,40.1651,320.0368,0,U,27651,999,27172,.17651E-3,.2317E-4,0
MOST,2003-031D,2026-06-15T22:39:34.018272,14.21322253,.000872,98.7044,174.6875,254.4201,105.6013,0,U,27843,999,19053,.4093E-4,.45E-6,0
SCISAT 1,2003-036A,2026-06-16T03:29:01.932000,14.81446709,.0008572,73.9285,173.4132,243.0655,116.9646,0,U,27858,999,23129,.56555E-4,.406E-5,0
SWIFT,2004-047A,2026-06-15T09:44:36.258144,15.68175033,.0001619,20.5516,198.6409,255.9834,104.0432,0,U,28485,999,18658,.35480339E-3,.42527E-3,0
HINODE (SOLAR-B),2006-041A,2026-06-16T00:39:04.023360,14.68621714,.0016049,98.0548,183.1968,293.7348,66.2173,0,U,29479,999,5470,.10706E-3,.574E-5,0
SHIJIAN-6 02A (SJ-6 02A),2006-046A,2026-06-16T04:02:03.086592,15.16934127,.000438,97.6358,208.2263,126.8902,233.2733,0,U,29505,999,7211,.26096E-3,.5079E-4,0
SHIJIAN-6 02B (SJ-6 02B),2006-046B,2026-06-16T05:07:12.182880,15.01375176,.0015323,97.7156,196.2779,63.2983,296.9808,0,U,29506,999,7059,.90183E-4,.1104E-4,0
FGRST (GLAST),2008-029A,2026-06-15T12:37:38.883936,15.23940833,.0007643,25.5806,216.0172,308.9336,51.0521,0,U,33053,999,99558,.8701E-4,.2502E-4,0
SDO,2010-005A,2026-06-16T04:52:40.387008,1.00269936,.0001763,34.6501,86.3565,46.4520,102.7529,0,U,36395,999,6005,0,-.97E-6,0
CRYOSAT 2,2010-013A,2026-06-16T04:27:11.138976,14.51898839,.0002158,92.0354,277.0580,89.1946,270.9508,0,U,36508,999,85793,.46653E-4,.191E-5,0
X-SAT,2011-015C,2026-06-16T04:08:19.272192,14.25206152,.0013998,98.3502,144.2442,351.5563,8.5380,0,U,37389,999,78753,.38269E-4,.49E-6,0
GCOM-W1 (SHIZUKU),2012-025A,2026-06-15T19:07:09.377184,14.57123501,.00018011,98.2021,107.3733,76.0223,344.5777,0,U,38337,999,74883,.95042444E-4,.383E-5,0
NUSTAR,2012-031A,2026-06-16T06:00:02.000160,15.08793148,.0006422,6.0287,41.1604,97.6238,286.5299,0,U,38358,999,130,.10564E-2,.18016E-3,0
NEOSSAT,2013-009D,2026-06-16T02:16:07.440384,14.35826069,.0009867,98.4176,347.1532,247.4462,112.5680,0,U,39089,999,69658,.55688E-4,.118E-5,0
BRITE-AUSTRIA,2013-009F,2026-06-16T02:14:55.762944,14.36541737,.0009106,98.3994,346.5565,240.1939,119.8342,0,U,39091,999,69689,.62862E-4,.142E-5,0
IRIS,2013-033A,2026-06-16T03:42:51.816096,14.85883616,.002363,97.9329,6.4350,325.3459,34.6215,0,U,39197,999,70022,.10429E-3,.857E-5,0
HISAKI (SPRINT-A),2013-049A,2026-06-15T21:02:29.929056,13.55544631,.0136868,29.7186,226.6759,6.2272,353.9971,0,U,39253,999,63124,.82855E-4,.124E-5,0
CASSIOPE,2013-055A,2026-06-16T04:16:14.718432,15.25103397,.0293006,80.9153,67.9478,65.8201,297.3362,0,U,39265,999,66751,.47481E-3,.43437E-3,-.52905E-6
STSAT-3,2013-066G,2026-06-16T04:20:01.760352,15.02753423,.001117,97.6219,137.0849,47.7943,312.4228,0,U,39422,999,68405,.22845E-3,.2997E-4,0
SWARM B,2013-067A,2026-06-16T03:38:38.868000,15.28545885,.0003301,87.7435,342.6312,85.9347,274.2280,0,U,39451,999,68308,.10233E-3,.2876E-4,0
