HST                     
1 20580U 90037B   26167.16527472  .00005381  00000+0  16841-3 0  9999
2 20580  28.4719  87.5586 0001853 131.7056 228.3698 15.30736864788416
POLAR                   
1 23802U 96013A   26166.49652623  .00000145  00000+0  00000+0 0  9990
2 23802  79.8518 227.0721 6468762 209.1369  89.7315  1.29846135144837
SWAS                    
1 25560U 98071A   26166.88926736  .00002684  00000+0  17292-3 0  9996
2 25560  69.8952 230.8665 0008679 261.4215  98.5965 15.09620380497073
CXO                     
1 25867U 99040B   26169.37713324  .00000529  00000+0  00000+0 0  9998
2 25867  56.2189 116.5542 7835469 310.3049   0.1821  0.37804062 17322
XMM-NEWTON              
1 25989U 99066A   26167.35230823  .00000036  00000+0  00000+0 0  9998
2 25989  64.4922 282.9960 4674559  64.9442   0.1261  0.50126459 23004
TERRA                   
1 25994U 99068A   26167.13049375  .00000315  00000+0  73126-4 0  9996
2 25994  97.9457 216.7186 0001501 193.3628 244.8059 14.61102329409455
CLUSTER II-FM7 (SAMBA)  
1 26410U 00041A   26168.13893488  .00013373  00000+0  00000+0 0  9990
2 26410 149.9159  50.9864 9054007 268.1291 359.6411  0.44868040 20307
CLUSTER II-FM8 (TANGO)  
1 26464U 00045B   26166.18659913  .00011723  00000+0  00000+0 0  9996
2 26464 150.1471  51.6871 9056658 268.6526   2.8141  0.44404213 20308
ODIN                    
1 26702U 01007A   26167.07828885  .00158692  00000+0  10319-2 0  9999
2 26702  97.3827 207.9489 0006782 144.4595 215.7123 15.75459520389227
TIMED                   
1 26998U 01055B   26167.20531466  .00000916  00000+0  86742-4 0  9990
2 26998  74.0674 236.9954 0001064 337.0634  23.0503 14.95293196330670
CORIOLIS                
1 27640U 03001A   26166.99927500  .00000077  00000+0  56891-4 0  9991
2 27640  98.7125 173.9021 0013308 212.3893 147.6467 14.19944511214055
SORCE                   
1 27651U 03004A   26167.01051745  .00002317  00000+0  17651-3 0  9998
2 27651  39.9909 268.3919 0016609  40.1651 320.0368 15.03708358271720
MOST                    
1 27843U 03031D   26166.94414373  .00000045  00000+0  40930-4 0  9995
2 27843  98.7044 174.6875 0008720 254.4201 105.6013 14.21322253190530
SCISAT 1                
1 27858U 03036A   26167.14516125  .00000406  00000+0  56555-4 0  9998
2 27858  73.9285 173.4132 0008572 243.0655 116.9646 14.81446709231298
SWIFT                   
1 28485U 04047A   26166.40597521  .00042527  00000+0  35480-3 0  9998
2 28485  20.5516 198.6409 0001619 255.9834 104.0432 15.68175033186589
HINODE (SOLAR-B)        
1 29479U 06041A   26167.02712990  .00000574  00000+0  10706-3 0  9996
2 29479  98.0548 183.1968 0016049 293.7348  66.2173 14.68621714 54700
SHIJIAN-6 02A (SJ-6 02A)
1 29505U 06046A   26167.16809128  .00005079  00000+0  26096-3 0  9990
2 29505  97.6358 208.2263 0004380 126.8902 233.2733 15.16934127 72110
SHIJIAN-6 02B (SJ-6 02B)
1 29506U 06046B   26167.21333545  .00001104  00000+0  90183-4 0  9996
2 29506  97.7156 196.2779 0015323  63.2983 296.9808 15.01375176 70594
FGRST (GLAST)           
1 33053U 08029A   26166.52614449  .00002502  00000+0  87010-4 0  9997
2 33053  25.5806 216.0172 0007643 308.9336  51.0521 15.23940833995581
SDO                     
1 36395U 10005A   26167.20324522 -.00000097  00000+0  00000+0 0  9999
2 36395  34.6501  86.3565 0001763  46.4520 102.7529  1.00269936 60051
CRYOSAT 2               
1 36508U 10013A   26167.18554559  .00000191  00000+0  46653-4 0  9999
2 36508  92.0354 277.0580 0002158  89.1946 270.9508 14.51898839857938
X-SAT                   
1 37389U 11015C   26167.17244528  .00000049  00000+0  38269-4 0  9997
2 37389  98.3502 144.2442 0013998 351.5563   8.5380 14.25206152787530
GCOM-W1 (SHIZUKU)       
1 38337U 12025A   26166.79663631  .00000383  00000+0  95042-4 0  9993
2 38337  98.2021 107.3733 0001801  76.0223 344.5777 14.57123501748838
NUSTAR                  
1 38358U 12031A   26167.25002315  .00018016  00000+0  10564-2 0  9997
2 38358   6.0287  41.1604 0006422  97.6238 286.5299 15.08793148  1308
NEOSSAT                 
1 39089U 13009D   26167.09453056  .00000118  00000+0  55688-4 0  9991
2 39089  98.4176 347.1532 0009867 247.4462 112.5680 14.35826069696581
BRITE-AUSTRIA           
1 39091U 13009F   26167.09370096  .00000142  00000+0  62862-4 0  9995
2 39091  98.3994 346.5565 0009106 240.1939 119.8342 14.36541737696891
IRIS                    
1 39197U 13033A   26167.15476639  .00000857  00000+0  10429-3 0  9990
2 39197  97.9329   6.4350 0023630 325.3459  34.6215 14.85883616700225
HISAKI (SPRINT-A)       
1 39253U 13049A   26166.87673529  .00000124  00000+0  82855-4 0  9995
2 39253  29.7186 226.6759 0136868   6.2272 353.9971 13.55544631631245
CASSIOPE                
1 39265U 13055A   26167.17794813  .00043437 -52905-6  47481-3 0  9997
2 39265  80.9153  67.9478 0293006  65.8201 297.3362 15.25103397667519
STSAT-3                 
1 39422U 13066G   26167.18057593  .00002997  00000+0  22845-3 0  9996
2 39422  97.6219 137.0849 0011170  47.7943 312.4228 15.02753423684059
SWARM B                 
1 39451U 13067A   26167.15183875  .00002876  00000+0  10233-3 0  9993
2 39451  87.7435 342.6312 0003301  85.9347 274.2280 15.28545885683083
